[{"OBJECT_NAME":"GJZ 03","OBJECT_ID":"2024-238C","EPOCH":"2026-03-09T22:56:12.125760","MEAN_MOTION":13.75190558,"ECCENTRICITY":0.00119154,"INCLINATION":59.9124,"RA_OF_ASC_NODE":211.3657,"ARG_OF_PERICENTER":255.991,"MEAN_ANOMALY":103.9773,"EPHEMERIS_TYPE":0,"CLASSIFICATION_TYPE":"U","NORAD_CAT_ID":62292,"ELEMENT_SET_NO":999,"REV_AT_EPOCH":6224,"BSTAR":0.00010470992,"MEAN_MOTION_DOT":-1.8e-7,"MEAN_MOTION_DDOT":0},{"OBJECT_NAME":"COSMOS 1275 DEB","OBJECT_ID":"1981-053C","EPOCH":"2026-03-10T00:00:10.908864","MEAN_MOTION":13.81715647,"ECCENTRICITY":0.00152766,"INCLINATION":82.966,"RA_OF_ASC_NODE":281.0575,"ARG_OF_PERICENTER":91.2526,"MEAN_ANOMALY":26.5053,"EPHEMERIS_TYPE":0,"CLASSIFICATION_TYPE":"U","NORAD_CAT_ID":12648,"ELEMENT_SET_NO":999,"REV_AT_EPOCH":24397,"BSTAR":0.00027676867,"MEAN_MOTION_DOT":3.12e-6,"MEAN_MOTION_DDOT":0}]
